NORAD_CAT_ID,OBJECT_NAME,OBJECT_TYPE,EPOCH,MEAN_MOTION,ECCENTRICITY,INCLINATION,RA_OF_ASC_NODE,ARG_OF_PERICENTER,MEAN_ANOMALY,BSTAR,MEAN_MOTION_DOT,MEAN_MOTION_DDOT,TLE_LINE0,TLE_LINE1,TLE_LINE2,SEMIMAJOR_AXIS,PERIOD,APOGEE,PERIGEE,DECAYED
55662.0,STARLINK-5479,PAYLOAD,2024-04-13 11:25:45,14.98330609,0.0003141,69.9985,117.538,268.8227,91.2572,6.1638e-05,6.43e-06,0.0,0 STARLINK-5479,1 55662U 23021AL  24104.47622218  .00000643  00000-0  61638-4 0  9996,2 55662  69.9985 117.5380 0003141 268.8227  91.2572 14.98330609 65146,6950.191,96.107,574.239,569.873,0.0
55662.0,STARLINK-5479,PAYLOAD,2024-04-14 05:03:14,14.98331699,0.0003088,69.9985,115.6865,267.9242,92.1564,3.7656e-05,3.56e-06,0.0,0 STARLINK-5479,1 55662U 23021AL  24105.21058185  .00000356  00000-0  37656-4 0  9999,2 55662  69.9985 115.6865 0003088 267.9242  92.1564 14.98331699 64959,6950.188,96.107,574.199,569.906,0.0
55662.0,STARLINK-5479,PAYLOAD,2024-04-14 09:51:38,14.98331866,0.0003077,69.9986,115.1817,267.8245,92.2562,3.8266e-05,3.64e-06,0.0,0 STARLINK-5479,1 55662U 23021AL  24105.41086157  .00000364  00000-0  38266-4 0  9998,2 55662  69.9986 115.1817 0003077 267.8245  92.2562 14.98331866 65284,6950.187,96.107,574.191,569.914,0.0
55662.0,STARLINK-5479,PAYLOAD,2024-04-15 05:05:15,14.98333134,0.0003112,69.9984,113.1615,267.699,92.3812,6.7387e-05,7.11e-06,0.0,0 STARLINK-5479,1 55662U 23021AL  24106.21197932  .00000711  00000-0  67387-4 0  9993,2 55662  69.9984 113.1615 0003112 267.6990  92.3812 14.98333134 65101,6950.183,96.107,574.211,569.885,0.0
55662.0,STARLINK-5479,PAYLOAD,2024-04-15 09:53:39,14.98334039,0.0003136,69.9984,112.6564,269.3539,90.7261,7.26e-05,7.73e-06,0.0,0 STARLINK-5479,1 55662U 23021AL  24106.41225844  .00000773  00000-0  72600-4 0  9991,2 55662  69.9984 112.6564 0003136 269.3539  90.7261 14.98334039 65433,6950.18,96.107,574.225,569.866,0.0
55662.0,STARLINK-5479,PAYLOAD,2024-04-15 17:54:19,14.9833462,0.0003171,69.9984,111.8145,270.4879,89.5917,7.8378e-05,8.42e-06,0.0,0 STARLINK-5479,1 55662U 23021AL  24106.74605746  .00000842  00000-0  78378-4 0  9995,2 55662  69.9984 111.8145 0003171 270.4879  89.5917 14.98334620 65483,6950.179,96.107,574.248,569.84,0.0
55662.0,STARLINK-5479,PAYLOAD,2024-04-16 05:07:16,14.98331637,0.0003166,69.9983,110.6357,268.6271,91.4525,4.662e-05,4.63e-06,0.0,0 STARLINK-5479,1 55662U 23021AL  24107.21338011  .00000463  00000-0  46620-4 0  9990,2 55662  69.9983 110.6357 0003166 268.6271  91.4525 14.98331637 65250,6950.188,96.107,574.253,569.852,0.0
55662.0,STARLINK-5479,PAYLOAD,2024-04-16 09:55:41,14.98321663,0.0003269,69.9983,110.1312,269.6728,90.4056,-7.4955e-05,-9.87e-06,0.0,0 STARLINK-5479,1 55662U 23021AL  24107.41366978 -.00000987  00000-0 -74955-4 0  9990,2 55662  69.9983 110.1312 0003269 269.6728  90.4056 14.98321663 65287,6950.219,96.108,574.356,569.812,0.0
55662.0,STARLINK-5479,PAYLOAD,2024-04-17 09:57:41,14.98328298,0.0003273,69.9984,107.6061,269.6046,90.4738,2.2856e-06,-6.6e-07,0.0,0 STARLINK-5479,1 55662U 23021AL  24108.41506781 -.00000066  00000-0  22856-5 0  9990,2 55662  69.9984 107.6061 0003273 269.6046  90.4738 14.98328298 65433,6950.198,96.107,574.338,569.788,0.0
55662.0,STARLINK-5479,PAYLOAD,2024-04-18 09:59:42,14.98330034,0.0003231,69.9984,105.0815,269.1597,90.9191,0.00020673,2.374e-05,0.0,0 STARLINK-5479,1 55662U 23021AL  24109.41646404  .00002374  00000-0  20673-3 0  9994,2 55662  69.9984 105.0815 0003231 269.1597  90.9191 14.98330034 65587,6950.193,96.107,574.303,569.812,0.0
55662.0,STARLINK-5479,PAYLOAD,2024-04-19 08:25:33,14.98365773,0.0003038,69.9997,102.7295,237.5507,122.5358,8.1236e-06,4e-08,0.0,0 STARLINK-5479,1 55662U 23021AL  24110.35108270  .00000004  00000-0  81236-5 0  9995,2 55662  69.9997 102.7295 0003038 237.5507 122.5358 14.98365773 65723,6950.082,96.105,574.059,569.836,0.0
55662.0,STARLINK-5479,PAYLOAD,2024-04-20 05:15:19,14.9833262,0.0003085,69.9988,100.539,255.6046,104.4771,0.00022793,2.628e-05,0.0,0 STARLINK-5479,1 55662U 23021AL  24111.21897444  .00002628  00000-0  22793-3 0  9994,2 55662  69.9988 100.5390 0003085 255.6046 104.4771 14.98332620 65853,6950.185,96.107,574.194,569.906,0.0
55662.0,STARLINK-5479,PAYLOAD,2024-04-20 10:03:43,14.98335935,0.0002932,69.9988,100.0322,269.122,90.9603,1.8956e-05,1.33e-06,0.0,0 STARLINK-5479,1 55662U 23021AL  24111.41925654  .00000133  00000-0  18956-4 0  9997,2 55662  69.9988 100.0322 0002932 269.1220  90.9603 14.98335935 66189,6950.175,96.107,574.077,570.002,0.0
55662.0,STARLINK-5479,PAYLOAD,2024-04-21 03:41:13,14.98322712,0.0002568,69.9998,98.1809,255.6442,104.4432,-0.00011935,-1.516e-05,0.0,0 STARLINK-5479,1 55662U 23021AL  24112.15362732 -.00001516  00000-0 -11935-3 0  9998,2 55662  69.9998  98.1809 0002568 255.6442 104.4432 14.98322712 65996,6950.215,96.107,573.865,570.296,0.0
55662.0,STARLINK-5479,PAYLOAD,2024-04-21 08:29:37,14.98323062,0.000282,69.9988,97.6744,262.7779,97.306,-0.0001441,-1.812e-05,0.0,0 STARLINK-5479,1 55662U 23021AL  24112.35390815 -.00001812  00000-0 -14410-3 0  9993,2 55662  69.9988  97.6744 0002820 262.7779  97.3060 14.98323062 66324,6950.214,96.107,574.039,570.119,0.0
55662.0,STARLINK-5479,PAYLOAD,2024-04-21 22:54:49,14.98326144,0.0002024,70.0008,96.1625,294.7395,65.3554,0.00012536,1.403e-05,0.0,0 STARLINK-5479,1 55662U 23021AL  24112.95474216  .00001403  00000-0  12536-3 0  9998,2 55662  70.0008  96.1625 0002024 294.7395  65.3554 14.98326144 66414,6950.205,96.107,573.477,570.663,0.0
55662.0,STARLINK-5479,PAYLOAD,2024-04-22 03:43:13,14.98329723,0.0002612,69.9995,95.6562,263.1699,96.9162,0.00010815,1.198e-05,0.0,0 STARLINK-5479,1 55662U 23021AL  24113.15501855  .00001198  00000-0  10815-3 0  9990,2 55662  69.9995  95.6562 0002612 263.1699  96.9162 14.98329723 66141,6950.194,96.107,573.874,570.243,0.0
55662.0,STARLINK-5479,PAYLOAD,2024-04-22 08:31:37,14.98331173,0.0002626,69.9995,95.1511,267.2111,92.8747,0.00012089,1.35e-05,0.0,0 STARLINK-5479,1 55662U 23021AL  24113.35529787  .00001350  00000-0  12089-3 0  9991,2 55662  69.9995  95.1511 0002626 267.2111  92.8747 14.98331173 66471,6950.189,96.107,573.879,570.229,0.0
55662.0,STARLINK-5479,PAYLOAD,2024-04-22 22:56:50,14.98325192,0.0002539,69.9998,93.6358,266.4529,93.634,0.00021805,2.509e-05,0.0,0 STARLINK-5479,1 55662U 23021AL  24113.95613961  .00002509  00000-0  21805-3 0  9998,2 55662  69.9998  93.6358 0002539 266.4529  93.6340 14.98325192 66565,6950.208,96.107,573.837,570.308,0.0
55662.0,STARLINK-5479,PAYLOAD,2024-04-23 03:45:14,14.9832453,0.0002726,69.9997,93.1309,269.0444,91.0403,0.00019801,2.27e-05,0.0,0 STARLINK-5479,1 55662U 23021AL  24114.15642120  .00002270  00000-0  19801-3 0  9998,2 55662  69.9997  93.1309 0002726 269.0444  91.0403 14.98324530 66295,6950.21,96.107,573.969,570.18,0.0
55662.0,STARLINK-5479,PAYLOAD,2024-04-23 08:33:38,14.98325661,0.000263,69.9997,92.6258,268.5065,91.5793,0.00021098,2.425e-05,0.0,0 STARLINK-5479,1 55662U 23021AL  24114.35670087  .00002425  00000-0  21098-3 0  9996,2 55662  69.9997  92.6258 0002630 268.5065  91.5793 14.98325661 66629,6950.206,96.107,573.899,570.243,0.0
55662.0,STARLINK-5479,PAYLOAD,2024-04-24 05:23:23,14.98333534,0.000208,70.0002,90.4356,242.908,117.1867,7.7077e-05,8.27e-06,0.0,0 STARLINK-5479,1 55662U 23021AL  24115.22457777  .00000827  00000-0  77077-4 0  9995,2 55662  70.0002  90.4356 0002080 242.9080 117.1867 14.98333534 66452,6950.182,96.107,573.493,570.601,0.0
55662.0,STARLINK-5479,PAYLOAD,2024-04-24 08:35:39,14.98336282,0.0002148,70.0004,90.0995,250.5297,109.563,9.5077e-05,1.042e-05,0.0,0 STARLINK-5479,1 55662U 23021AL  24115.35809522  .00001042  00000-0  95077-4 0  9998,2 55662  70.0004  90.0995 0002148 250.5297 109.5630 14.98336282 66770,6950.173,96.107,573.531,570.546,0.0
55662.0,STARLINK-5479,PAYLOAD,2024-04-24 21:24:44,14.98331691,0.0002159,70.0015,88.7571,250.5583,109.5343,6.4508e-05,6.77e-06,0.0,0 STARLINK-5479,1 55662U 23021AL  24115.89217796  .00000677  00000-0  64508-4 0  9991,2 55662  70.0015  88.7571 0002159 250.5583 109.5343 14.98331691 66855,6950.188,96.107,573.553,570.552,0.0
55662.0,STARLINK-5479,PAYLOAD,2024-04-25 05:25:24,14.98326246,0.0002403,70.0008,87.9133,255.0271,105.0622,-1.401e-05,-2.6e-06,0.0,0 STARLINK-5479,1 55662U 23021AL  24116.22598228 -.00000260  00000-0 -14010-4 0  9994,2 55662  70.0008  87.9133 0002403 255.0271 105.0622 14.98326246 66602,6950.204,96.107,573.74,570.399,0.0
55662.0,STARLINK-5479,PAYLOAD,2024-04-25 08:37:41,14.98326734,0.0002407,70.0011,87.5775,254.9767,105.1126,-3.9554e-06,-1.4e-06,0.0,0 STARLINK-5479,1 55662U 23021AL  24116.35950251 -.00000140  00000-0 -39554-5 0  9994,2 55662  70.0011  87.5775 0002407 254.9767 105.1126 14.98326734 66923,6950.203,96.107,573.741,570.395,0.0
55662.0,STARLINK-5479,PAYLOAD,2024-04-25 23:02:53,14.98329744,0.0002698,70.0006,86.0608,255.8152,104.2707,1.7621e-05,1.17e-06,0.0,0 STARLINK-5479,1 55662U 23021AL  24116.96033849  .00000117  00000-0  17621-4 0  9998,2 55662  70.0006  86.0608 0002698 255.8152 104.2707 14.98329744 67016,6950.194,96.107,573.934,570.184,0.0
55662.0,STARLINK-5479,PAYLOAD,2024-04-26 07:03:33,14.98331857,0.0002602,70.0003,85.2199,243.746,116.3432,9.7554e-06,2.3e-07,0.0,0 STARLINK-5479,1 55662U 23021AL  24117.29413648  .00000023  00000-0  97554-5 0  9994,2 55662  70.0003  85.2199 0002602 243.7460 116.3432 14.98331857 66760,6950.187,96.107,573.861,570.244,0.0
55662.0,STARLINK-5479,PAYLOAD,2024-04-27 07:05:33,14.98335337,0.0002795,69.9999,82.6939,267.5042,92.5797,0.00012193,1.362e-05,0.0,0 STARLINK-5479,1 55662U 23021AL  24118.29553175  .00001362  00000-0  12193-3 0  9996,2 55662  69.9999  82.6939 0002795 267.5042  92.5797 14.98335337 66910,6950.176,96.107,573.984,570.099,0.0
55662.0,STARLINK-5479,PAYLOAD,2024-04-27 21:30:47,14.98327997,0.0002408,70.0004,81.1793,269.5222,90.5661,1.009e-05,2.7e-07,0.0,0 STARLINK-5479,1 55662U 23021AL  24118.89637994  .00000027  00000-0  10090-4 0  9996,2 55662  70.0004  81.1793 0002408 269.5222  90.5661 14.98327997 67007,6950.199,96.107,573.738,570.39,0.0
